{"type": "FeatureCollection", "features": [ {"type": "Feature", "properties": {"norad_id": 43683, "name": "BEIDOU-3 G1 (C59)", "group": "gnss", "lat": -0.41277465551825243, "lon": 93.42500640725495, "alt_km": 35783.85241481296, "timestamp": "2025-12-08T15:42:50.033915+00:00", "meta": {"OBJECT_NAME": "BEIDOU-3 G1 (C59)", "OBJECT_ID": "2018-085A", "EPOCH": "2025-12-08T07:25:20.267040", "MEAN_MOTION": 1.00272172, "ECCENTRICITY": 0.00018048, "INCLINATION": 2.5963, "RA_OF_ASC_NODE": 103.0717, "ARG_OF_PERICENTER": 63.3495, "MEAN_ANOMALY": 162.3008, "EPHEMERIS_TYPE": 0, "CLASSIFICATION_TYPE": "U", "NORAD_CAT_ID": 43683, "ELEMENT_SET_NO": 999, "REV_AT_EPOCH": 2614, "BSTAR": 0, "MEAN_MOTION_DOT": -2.75e-06, "MEAN_MOTION_DDOT": 0}, "tle": {"line1": "1 43683U 18085A   25342.30926235 -.00000275  00000+0  00000+0 0  9995", "line2": "2 43683   2.5963 103.0717 0001804  63.3495 162.3008  1.00272172 26148"}}, "geometry": {"type": "Point", "coordinates": [93.42500640725495, -0.41277465551825243]}}, {"type": "Feature", "properties": {"norad_id": 43687, "name": "COSMOS 2529 (757)", "group": "gnss", "lat": -5.053758080286053, "lon": -163.41140105879938, "alt_km": 19134.32365858264, "timestamp": "2025-12-08T15:42:50.033928+00:00", "meta": {"OBJECT_NAME": "COSMOS 2529 (757)", "OBJECT_ID": "2018-086A", "EPOCH": "2025-12-03T00:44:36.468960", "MEAN_MOTION": 2.13101888, "ECCENTRICITY": 0.00072932, "INCLINATION": 64.2917, "RA_OF_ASC_NODE": 199.2166, "ARG_OF_PERICENTER": 254.4618, "MEAN_ANOMALY": 105.5545, "EPHEMERIS_TYPE": 0, "CLASSIFICATION_TYPE": "U", "NORAD_CAT_ID": 43687, "ELEMENT_SET_NO": 999, "REV_AT_EPOCH": 5510, "BSTAR": 0, "MEAN_MOTION_DOT": 1.06e-06, "MEAN_MOTION_DDOT": 0}, "tle": {"line1": "1 43687U 18086A   25337.03097765  .00000106  00000+0  00000+0 0  9993", "line2": "2 43687  64.2917 199.2166 0007293 254.4618 105.5545  2.13101888 55102"}}, "geometry": {"type": "Point", "coordinates": [-163.41140105879938, -5.053758080286053]}}, {"type": "Feature", "properties": {"norad_id": 43706, "name": "BEIDOU-3 M17 (C36)", "group": "gnss", "lat": -19.413218685169713, "lon": 174.01401853913978, "alt_km": 21515.64612759239, "timestamp": "2025-12-08T15:42:50.033940+00:00", "meta": {"OBJECT_NAME": "BEIDOU-3 M17 (C36)", "OBJECT_ID": "2018-093A", "EPOCH": "2025-12-07T14:48:21.855168", "MEAN_MOTION": 1.86228284, "ECCENTRICITY": 0.00062805, "INCLINATION": 54.1726, "RA_OF_ASC_NODE": 188.7957, "ARG_OF_PERICENTER": 306.8929, "MEAN_ANOMALY": 53.1188, "EPHEMERIS_TYPE": 0, "CLASSIFICATION_TYPE": "U", "NORAD_CAT_ID": 43706, "ELEMENT_SET_NO": 999, "REV_AT_EPOCH": 4797, "BSTAR": 0, "MEAN_MOTION_DOT": 5.7e-07, "MEAN_MOTION_DDOT": 0}, "tle": {"line1": "1 43706U 18093A   25341.61691962  .00000057  00000+0  00000+0 0  9996", "line2": "2 43706  54.1726 188.7957 0006280 306.8929  53.1188  1.86228284 47979"}}, "geometry": {"type": "Point", "coordinates": [174.01401853913978, -19.413218685169713]}}, {"type": "Feature", "properties": {"norad_id": 43707, "name": "BEIDOU-3 M18 (C37)", "group": "gnss", "lat": 49.06534501011494, "lon": -114.81409960584006, "alt_km": 21518.533019075214, "timestamp": "2025-12-08T15:42:50.033951+00:00", "meta": {"OBJECT_NAME": "BEIDOU-3 M18 (C37)", "OBJECT_ID": "2018-093B", "EPOCH": "2025-12-08T00:22:06.139776", "MEAN_MOTION": 1.86226539, "ECCENTRICITY": 0.00063651, "INCLINATION": 54.1733, "RA_OF_ASC_NODE": 188.774, "ARG_OF_PERICENTER": 352.0648, "MEAN_ANOMALY": 7.9918, "EPHEMERIS_TYPE": 0, "CLASSIFICATION_TYPE": "U", "NORAD_CAT_ID": 43707, "ELEMENT_SET_NO": 999, "REV_AT_EPOCH": 4797, "BSTAR": 0, "MEAN_MOTION_DOT": 5.3e-07, "MEAN_MOTION_DDOT": 0}, "tle": {"line1": "1 43707U 18093B   25342.01534884  .00000053  00000+0  00000+0 0  9997", "line2": "2 43707  54.1733 188.7740 0006365 352.0648   7.9918  1.86226539 47972"}}, "geometry": {"type": "Point", "coordinates": [-114.81409960584006, 49.06534501011494]}}, {"type": "Feature", "properties": {"norad_id": 43873, "name": "GPS BIII-1  (PRN 04)", "group": "gnss", "lat": 52.33427846671615, "lon": 162.2942701223549, "alt_km": 20227.735695059037, "timestamp": "2025-12-08T15:42:50.033964+00:00", "meta": {"OBJECT_NAME": "GPS BIII-1  (PRN 04)", "OBJECT_ID": "2018-109A", "EPOCH": "2025-12-08T07:13:28.903008", "MEAN_MOTION": 2.00553333, "ECCENTRICITY": 0.00372059, "INCLINATION": 55.5652, "RA_OF_ASC_NODE": 99.7218, "ARG_OF_PERICENTER": 194.8087, "MEAN_ANOMALY": 343.7939, "EPHEMERIS_TYPE": 0, "CLASSIFICATION_TYPE": "U", "NORAD_CAT_ID": 43873, "ELEMENT_SET_NO": 999, "REV_AT_EPOCH": 5124, "BSTAR": 0, "MEAN_MOTION_DOT": 5e-08, "MEAN_MOTION_DDOT": 0}, "tle": {"line1": "1 43873U 18109A   25342.30102897  .00000005  00000+0  00000+0 0  9993", "line2": "2 43873  55.5652  99.7218 0037205 194.8087 343.7939  2.00553333 51249"}}, "geometry": {"type": "Point", "coordinates": [162.2942701223549, 52.33427846671615]}}, {"type": "Feature", "properties": {"norad_id": 44204, "name": "BEIDOU-3 IGSO-1 (C38)", "group": "gnss", "lat": 22.99200780159359, "lon": 54.76225942087663, "alt_km": 35901.60594419548, "timestamp": "2025-12-08T15:42:50.033975+00:00", "meta": {"OBJECT_NAME": "BEIDOU-3 IGSO-1 (C38)", "OBJECT_ID": "2019-023A", "EPOCH": "2025-11-19T14:15:02.708640", "MEAN_MOTION": 1.00252177, "ECCENTRICITY": 0.0026966, "INCLINATION": 58.4003, "RA_OF_ASC_NODE": 39.8168, "ARG_OF_PERICENTER": 221.2202, "MEAN_ANOMALY": 126.9723, "EPHEMERIS_TYPE": 0, "CLASSIFICATION_TYPE": "U", "NORAD_CAT_ID": 44204, "ELEMENT_SET_NO": 999, "REV_AT_EPOCH": 510, "BSTAR": 0, "MEAN_MOTION_DOT": -2.26e-06, "MEAN_MOTION_DDOT": 0}, "tle": {"line1": "1 44204U 19023A   25323.59378135 -.00000226  00000+0  00000+0 0  9994", "line2": "2 44204  58.4003  39.8168 0026966 221.2202 126.9723  1.00252177  5102"}}, "geometry": {"type": "Point", "coordinates": [54.76225942087663, 22.99200780159359]}}, {"type": "Feature", "properties": {"norad_id": 44231, "name": "BEIDOU-2 G8 (C01)", "group": "gnss", "lat": 0.6726622692698633, "lon": 97.97417481519183, "alt_km": 35809.02193819483, "timestamp": "2025-12-08T15:42:50.033990+00:00", "meta": {"OBJECT_NAME": "BEIDOU-2 G8 (C01)", "OBJECT_ID": "2019-027A", "EPOCH": "2025-12-08T07:26:35.147328", "MEAN_MOTION": 1.00269007, "ECCENTRICITY": 0.00086087, "INCLINATION": 1.6505, "RA_OF_ASC_NODE": 74.7218, "ARG_OF_PERICENTER": 255.48, "MEAN_ANOMALY": 3.3084, "EPHEMERIS_TYPE": 0, "CLASSIFICATION_TYPE": "U", "NORAD_CAT_ID": 44231, "ELEMENT_SET_NO": 999, "REV_AT_EPOCH": 2416, "BSTAR": 0, "MEAN_MOTION_DOT": -2.45e-06, "MEAN_MOTION_DDOT": 0}, "tle": {"line1": "1 44231U 19027A   25342.31012902 -.00000245  00000+0  00000+0 0  9997", "line2": "2 44231   1.6505  74.7218 0008608 255.4800   3.3084  1.00269007 24164"}}, "geometry": {"type": "Point", "coordinates": [97.97417481519183, 0.6726622692698633]}}, {"type": "Feature", "properties": {"norad_id": 44299, "name": "COSMOS 2534 (758)", "group": "gnss", "lat": 44.686610569565026, "lon": -9.323385260651856, "alt_km": 19145.402734722844, "timestamp": "2025-12-08T15:42:50.034003+00:00", "meta": {"OBJECT_NAME": "COSMOS 2534 (758)", "OBJECT_ID": "2019-030A", "EPOCH": "2025-12-08T05:49:23.609568", "MEAN_MOTION": 2.13102077, "ECCENTRICITY": 0.00089492, "INCLINATION": 64.3654, "RA_OF_ASC_NODE": 199.0446, "ARG_OF_PERICENTER": 283.6677, "MEAN_ANOMALY": 248.9744, "EPHEMERIS_TYPE": 0, "CLASSIFICATION_TYPE": "U", "NORAD_CAT_ID": 44299, "ELEMENT_SET_NO": 999, "REV_AT_EPOCH": 5085, "BSTAR": 0, "MEAN_MOTION_DOT": 4.9e-07, "MEAN_MOTION_DDOT": 0}, "tle": {"line1": "1 44299U 19030A   25342.24263437  .00000049  00000+0  00000+0 0  9999", "line2": "2 44299  64.3654 199.0446 0008949 283.6677 248.9744  2.13102077 50859"}}, "geometry": {"type": "Point", "coordinates": [-9.323385260651856, 44.686610569565026]}}, {"type": "Feature", "properties": {"norad_id": 44337, "name": "BEIDOU-3 IGSO-2 (C39)", "group": "gnss", "lat": -55.07191532890704, "lon": 75.41564520605871, "alt_km": 35738.8310815074, "timestamp": "2025-12-08T15:42:50.034015+00:00", "meta": {"OBJECT_NAME": "BEIDOU-3 IGSO-2 (C39)", "OBJECT_ID": "2019-035A", "EPOCH": "2025-12-08T04:07:53.847264", "MEAN_MOTION": 1.00272471, "ECCENTRICITY": 0.00374795, "INCLINATION": 55.2246, "RA_OF_ASC_NODE": 160.5411, "ARG_OF_PERICENTER": 202.4386, "MEAN_ANOMALY": 255.7158, "EPHEMERIS_TYPE": 0, "CLASSIFICATION_TYPE": "U", "NORAD_CAT_ID": 44337, "ELEMENT_SET_NO": 999, "REV_AT_EPOCH": 2375, "BSTAR": 0, "MEAN_MOTION_DOT": -7.9e-07, "MEAN_MOTION_DDOT": 0}, "tle": {"line1": "1 44337U 19035A   25342.17215101 -.00000079  00000+0  00000+0 0  9998", "line2": "2 44337  55.2246 160.5411 0037479 202.4386 255.7158  1.00272471 23754"}}, "geometry": {"type": "Point", "coordinates": [75.41564520605871, -55.07191532890704]}}, {"type": "Feature", "properties": {"norad_id": 44506, "name": "GPS BIII-2  (PRN 18)", "group": "gnss", "lat": -23.40180250297949, "lon": -38.45818770837171, "alt_km": 20288.651745930427, "timestamp": "2025-12-08T15:42:50.034029+00:00", "meta": {"OBJECT_NAME": "GPS BIII-2  (PRN 18)", "OBJECT_ID": "2019-056A", "EPOCH": "2025-12-07T10:30:03.799008", "MEAN_MOTION": 2.00565766, "ECCENTRICITY": 0.00577762, "INCLINATION": 55.723, "RA_OF_ASC_NODE": 338.7627, "ARG_OF_PERICENTER": 198.4737, "MEAN_ANOMALY": 333.4267, "EPHEMERIS_TYPE": 0, "CLASSIFICATION_TYPE": "U", "NORAD_CAT_ID": 44506, "ELEMENT_SET_NO": 999, "REV_AT_EPOCH": 4622, "BSTAR": 0, "MEAN_MOTION_DOT": -8.3e-07, "MEAN_MOTION_DDOT": 0}, "tle": {"line1": "1 44506U 19056A   25341.43754397 -.00000083  00000+0  00000+0 0  9997", "line2": "2 44506  55.7230 338.7627 0057776 198.4737 333.4267  2.00565766 46229"}}, "geometry": {"type": "Point", "coordinates": [-38.45818770837171, -23.40180250297949]}}]}